{"type":"FeatureCollection","crs":{"type":"name","properties":{"name":"EPSG:4326"}},"features":[{"type":"Feature","id":14,"geometry":{"type":"Point","coordinates":[-112.20963959999995,48.998676600000067]},"properties":{"OBJECTID":14,"Country":"Canada","LineName":"No Name","Owner":"Montana Alberta Tie","Latitude":48.998676600000003,"Longitude":-112.2096396,"City":"Coutts","County":"","StateProv":"Alberta","ZipCode":"","Address":"","FrmState":"Alberta","FrmCountry":"Canada","ToState":"Montana","ToCountry":"United States","NumLines":1,"Voltage_kV":"230","Source":"NEB/ONÉ","Period":201708}},{"type":"Feature","id":15,"geometry":{"type":"Point","coordinates":[-122.72394339999994,49.002094700000043]},"properties":{"OBJECTID":15,"Country":"Canada","LineName":"Ingledow-Blaine (5L51) IPL","Owner":"British Columbia Hydro and Power Authority","Latitude":49.002094700000001,"Longitude":-122.7239434,"City":"Douglas","County":"","StateProv":"British Columbia","ZipCode":"","Address":"","FrmState":"British Columbia","FrmCountry":"Canada","ToState":"Washington","ToCountry":"United States","NumLines":2,"Voltage_kV":"500(2)","Source":"NEB/ONÉ","Period":201708}},{"type":"Feature","id":16,"geometry":{"type":"Point","coordinates":[-117.34218679999998,49.000245000000064]},"properties":{"OBJECTID":16,"Country":"Canada","LineName":"Waneta IPL","Owner":"Teck Metals Ltd.","Latitude":49.000245,"Longitude":-117.34218679999999,"City":"Nelway","County":"","StateProv":"British Columbia","ZipCode":"","Address":"","FrmState":"British Columbia","FrmCountry":"Canada","ToState":"Washington","ToCountry":"United States","NumLines":2,"Voltage_kV":"230(2)","Source":"NEB/ONÉ","Period":201708}},{"type":"Feature","id":17,"geometry":{"type":"Point","coordinates":[-99.559235399999977,48.999389000000065]},"properties":{"OBJECTID":17,"Country":"Canada","LineName":"No Name","Owner":"Manitoba Hydro-Electric Board - Régie de l'hydro-électricité du Manitoba","Latitude":48.999389000000001,"Longitude":-99.559235400000006,"City":"Smith Hill","County":"","StateProv":"Manitoba","ZipCode":"","Address":"","FrmState":"Manitoba","FrmCountry":"Canada","ToState":"North Dakota","ToCountry":"United States","NumLines":1,"Voltage_kV":"230","Source":"NEB/ONÉ","Period":201708}},{"type":"Feature","id":18,"geometry":{"type":"Point","coordinates":[-97.277931699999954,49.000472700000046]},"properties":{"OBJECTID":18,"Country":"Canada","LineName":"Letellier-Prairie IPL","Owner":"Manitoba Hydro-Electric Board - Régie de l'hydro-électricité du Manitoba","Latitude":49.000472700000003,"Longitude":-97.277931699999996,"City":"West Lynne","County":"","StateProv":"Manitoba","ZipCode":"","Address":"","FrmState":"Manitoba","FrmCountry":"Canada","ToState":"North Dakota","ToCountry":"United States","NumLines":1,"Voltage_kV":"230","Source":"NEB/ONÉ","Period":201708}},{"type":"Feature","id":19,"geometry":{"type":"Point","coordinates":[-95.53941999999995,48.99925200000007]},"properties":{"OBJECTID":19,"Country":"Canada","LineName":"Dorsey-Chisago County IPL","Owner":"Manitoba Hydro-Electric Board - Régie de l'hydro-électricité du Manitoba","Latitude":48.999251999999998,"Longitude":-95.539420000000007,"City":"Middlebro","County":"","StateProv":"Manitoba","ZipCode":"","Address":"","FrmState":"Manitoba","FrmCountry":"Canada","ToState":"Minnesota","ToCountry":"United States","NumLines":1,"Voltage_kV":"500","Source":"NEB/ONÉ","Period":201708}},{"type":"Feature","id":20,"geometry":{"type":"Point","coordinates":[-95.507148899999947,48.999207600000034]},"properties":{"OBJECTID":20,"Country":"Canada","LineName":"Richer-Shannon IPL","Owner":"Manitoba Hydro-Electric Board - Régie de l'hydro-électricité du Manitoba","Latitude":48.999207599999998,"Longitude":-95.507148900000004,"City":"Middlebro","County":"","StateProv":"Manitoba","ZipCode":"","Address":"","FrmState":"Manitoba","FrmCountry":"Canada","ToState":"Minnesota","ToCountry":"United States","NumLines":1,"Voltage_kV":"230","Source":"NEB/ONÉ","Period":201708}},{"type":"Feature","id":21,"geometry":{"type":"Point","coordinates":[-68.301677999999981,47.355555100000061]},"properties":{"OBJECTID":21,"Country":"Canada","LineName":"Edmundston-Madawaska IPL","Owner":"New Brunswick Power Transmission Corporation","Latitude":47.355555099999997,"Longitude":-68.301677999999995,"City":"Edmundston","County":"","StateProv":"New Brunswick","ZipCode":"","Address":"","FrmState":"New Brunswick","FrmCountry":"Canada","ToState":"Maine","ToCountry":"United States","NumLines":1,"Voltage_kV":"138","Source":"NEB/ONÉ","Period":201708}},{"type":"Feature","id":22,"geometry":{"type":"Point","coordinates":[-67.788839999999936,46.601600000000076]},"properties":{"OBJECTID":22,"Country":"Canada","LineName":"Beechwood-Flo‘S Inn IPL","Owner":"New Brunswick Power Transmission Corporation","Latitude":46.601599999999998,"Longitude":-67.788839999999993,"City":"Andover","County":"","StateProv":"New Brunswick","ZipCode":"","Address":"","FrmState":"New Brunswick","FrmCountry":"Canada","ToState":"Maine","ToCountry":"United States","NumLines":1,"Voltage_kV":"138","Source":"NEB/ONÉ","Period":201708}},{"type":"Feature","id":23,"geometry":{"type":"Point","coordinates":[-67.78960399999994,46.791153000000065]},"properties":{"OBJECTID":23,"Country":"Canada","LineName":"Circuit 6901 Tinker Plant","Owner":"Algonquin Tinker Gen Co.","Latitude":46.791153000000001,"Longitude":-67.789603999999997,"City":"Turner Settlement","County":"","StateProv":"New Brunswick","ZipCode":"","Address":"","FrmState":"New Brunswick","FrmCountry":"Canada","ToState":"Maine","ToCountry":"United States","NumLines":1,"Voltage_kV":"69","Source":"NEB/ONÉ","Period":201708}},{"type":"Feature","id":24,"geometry":{"type":"Point","coordinates":[-67.789615999999967,46.825228000000038]},"properties":{"OBJECTID":24,"Country":"Canada","LineName":"Circuit 6904 Tinker Plant","Owner":"Algonquin Tinker Gen Co.","Latitude":46.825228000000003,"Longitude":-67.789615999999995,"City":"Tinker","County":"","StateProv":"New Brunswick","ZipCode":"","Address":"","FrmState":"New Brunswick","FrmCountry":"Canada","ToState":"Maine","ToCountry":"United States","NumLines":1,"Voltage_kV":"69","Source":"NEB/ONÉ","Period":201708}},{"type":"Feature","id":25,"geometry":{"type":"Point","coordinates":[-67.789543999999978,45.851583000000062]},"properties":{"OBJECTID":25,"Country":"Canada","LineName":"Keswick-Orrington IPL","Owner":"New Brunswick Power Transmission Corporation","Latitude":45.851582999999998,"Longitude":-67.789544000000006,"City":"Fosterville","County":"","StateProv":"New Brunswick","ZipCode":"","Address":"","FrmState":"New Brunswick","FrmCountry":"Canada","ToState":"Maine","ToCountry":"United States","NumLines":1,"Voltage_kV":"345","Source":"NEB/ONÉ","Period":201708}},{"type":"Feature","id":26,"geometry":{"type":"Point","coordinates":[-67.431312599999956,45.209812300000067]},"properties":{"OBJECTID":26,"Country":"Canada","LineName":"No Name","Owner":"New Brunswick Power Transmission Corporation","Latitude":45.209812300000003,"Longitude":-67.431312599999998,"City":"Saint James","County":"","StateProv":"New Brunswick","ZipCode":"","Address":"","FrmState":"New Brunswick","FrmCountry":"Canada","ToState":"Maine","ToCountry":"United States","NumLines":1,"Voltage_kV":"345","Source":"NEB/ONÉ","Period":201708}},{"type":"Feature","id":27,"geometry":{"type":"Point","coordinates":[-67.293624999999963,45.176119000000028]},"properties":{"OBJECTID":27,"Country":"Canada","LineName":"Milltown Calais IPL","Owner":"New Brunswick Power Transmission Corporation","Latitude":45.176119,"Longitude":-67.293625000000006,"City":"St. Stephen","County":"","StateProv":"New Brunswick","ZipCode":"","Address":"","FrmState":"New Brunswick","FrmCountry":"Canada","ToState":"Maine","ToCountry":"United States","NumLines":1,"Voltage_kV":"69","Source":"NEB/ONÉ","Period":201708}},{"type":"Feature","id":28,"geometry":{"type":"Point","coordinates":[-83.094626099999971,42.292308200000036]},"properties":{"OBJECTID":28,"Country":"Canada","LineName":"Keith-Waterman J5D IPL","Owner":"Hydro One Networks Inc.","Latitude":42.292308200000001,"Longitude":-83.094626099999999,"City":"Sandwich","County":"","StateProv":"Ontario","ZipCode":"","Address":"","FrmState":"Ontario","FrmCountry":"Canada","ToState":"Michigan","ToCountry":"United States","NumLines":1,"Voltage_kV":"230","Source":"NEB/ONÉ","Period":201708}},{"type":"Feature","id":29,"geometry":{"type":"Point","coordinates":[-79.042508999999939,43.14278100000007]},"properties":{"OBJECTID":29,"Country":"Canada","LineName":"Sir Adam Beck-Niagara PA3O1/PA302 IPL/ EC-17","Owner":"Hydro One Networks Inc.","Latitude":43.142780999999999,"Longitude":-79.042508999999995,"City":"Queenston","County":"","StateProv":"Ontario","ZipCode":"","Address":"","FrmState":"Ontario","FrmCountry":"Canada","ToState":"New York","ToCountry":"United States","NumLines":6,"Voltage_kV":"345(2)/230/115/69(2)","Source":"NEB/ONÉ","Period":201708}},{"type":"Feature","id":30,"geometry":{"type":"Point","coordinates":[-78.906002999999941,42.906978000000038]},"properties":{"OBJECTID":30,"Country":"Canada","LineName":"Peace Bridge IPL","Owner":"Canadian Niagara Power Inc.","Latitude":42.906978000000002,"Longitude":-78.906002999999998,"City":"Old Fort Erie","County":"","StateProv":"Ontario","ZipCode":"","Address":"","FrmState":"Ontario","FrmCountry":"Canada","ToState":"New York","ToCountry":"United States","NumLines":1,"Voltage_kV":"115","Source":"NEB/ONÉ","Period":201708}},{"type":"Feature","id":31,"geometry":{"type":"Point","coordinates":[-74.78624659999997,45.004709000000048]},"properties":{"OBJECTID":31,"Country":"Canada","LineName":"Cornwall-Massena L33P/L34P IPL","Owner":"Hydro One Networks Inc.","Latitude":45.004708999999998,"Longitude":-74.786246599999998,"City":"Cornwall Island","County":"","StateProv":"Ontario","ZipCode":"","Address":"","FrmState":"Ontario","FrmCountry":"Canada","ToState":"New York","ToCountry":"United States","NumLines":2,"Voltage_kV":"230(2)","Source":"NEB/ONÉ","Period":201708}},{"type":"Feature","id":32,"geometry":{"type":"Point","coordinates":[-93.404775099999938,48.609890500000063]},"properties":{"OBJECTID":32,"Country":"Canada","LineName":"Fort Frances IPL","Owner":"Hydro One Networks Inc.","Latitude":48.609890499999999,"Longitude":-93.404775099999995,"City":"Fort Frances","County":"","StateProv":"Ontario","ZipCode":"","Address":"","FrmState":"Ontario","FrmCountry":"Canada","ToState":"Minnesota","ToCountry":"United States","NumLines":2,"Voltage_kV":"115(2)","Source":"NEB/ONÉ","Period":201708}},{"type":"Feature","id":33,"geometry":{"type":"Point","coordinates":[-82.474156299999947,42.79026250000004]},"properties":{"OBJECTID":33,"Country":"Canada","LineName":"Lambton-St. Clair L4D IPL","Owner":"Hydro One Networks Inc.","Latitude":42.790262499999997,"Longitude":-82.474156300000004,"City":"Courtright","County":"","StateProv":"Ontario","ZipCode":"","Address":"","FrmState":"Ontario","FrmCountry":"Canada","ToState":"Michigan","ToCountry":"United States","NumLines":1,"Voltage_kV":"345","Source":"NEB/ONÉ","Period":201708}},{"type":"Feature","id":34,"geometry":{"type":"Point","coordinates":[-82.474018899999976,42.790008000000057]},"properties":{"OBJECTID":34,"Country":"Canada","LineName":"Lambton-St. Clair L51D IPL","Owner":"Hydro One Networks Inc.","Latitude":42.790008,"Longitude":-82.474018900000004,"City":"Courtright","County":"","StateProv":"Ontario","ZipCode":"","Address":"","FrmState":"Ontario","FrmCountry":"Canada","ToState":"Michigan","ToCountry":"United States","NumLines":1,"Voltage_kV":"235","Source":"NEB/ONÉ","Period":201708}},{"type":"Feature","id":35,"geometry":{"type":"Point","coordinates":[-82.456379299999981,42.923508600000048]},"properties":{"OBJECTID":35,"Country":"Canada","LineName":"Sarnia Scott-Bunce Creek B3N IPL","Owner":"Hydro One Networks Inc.","Latitude":42.923508599999998,"Longitude":-82.456379299999995,"City":"FroomField","County":"","StateProv":"Ontario","ZipCode":"","Address":"","FrmState":"Ontario","FrmCountry":"Canada","ToState":"Michigan","ToCountry":"United States","NumLines":1,"Voltage_kV":"230","Source":"NEB/ONÉ","Period":201708}},{"type":"Feature","id":36,"geometry":{"type":"Point","coordinates":[-74.454146999999978,44.996954000000073]},"properties":{"OBJECTID":36,"Country":"Canada","LineName":"Chateauguay-Massena IPL","Owner":"Quebec Hydro - Hydro-Quebec","Latitude":44.996954000000002,"Longitude":-74.454147000000006,"City":"Dundee","County":"","StateProv":"Quebec","ZipCode":"","Address":"","FrmState":"Quebec","FrmCountry":"Canada","ToState":"New York","ToCountry":"United States","NumLines":1,"Voltage_kV":"765","Source":"NEB/ONÉ","Period":201708}},{"type":"Feature","id":37,"geometry":{"type":"Point","coordinates":[-72.967994899999951,45.014166200000034]},"properties":{"OBJECTID":37,"Country":"Canada","LineName":"Bedford-Vermont IPL","Owner":"Quebec Hydro - Hydro-Quebec","Latitude":45.014166199999998,"Longitude":-72.967994899999994,"City":"Saint-Armand","County":"","StateProv":"Quebec","ZipCode":"","Address":"","FrmState":"Quebec","FrmCountry":"Canada","ToState":"Vermont","ToCountry":"United States","NumLines":1,"Voltage_kV":"120","Source":"NEB/ONÉ","Period":201708}},{"type":"Feature","id":38,"geometry":{"type":"Point","coordinates":[-72.109272499999975,45.005641100000048]},"properties":{"OBJECTID":38,"Country":"Canada","LineName":"Derby Line IPL","Owner":"Quebec Hydro - Hydro-Quebec","Latitude":45.005641099999998,"Longitude":-72.109272500000003,"City":"Stanstead","County":"","StateProv":"Quebec","ZipCode":"","Address":"","FrmState":"Quebec","FrmCountry":"Canada","ToState":"Vermont","ToCountry":"United States","NumLines":1,"Voltage_kV":"120","Source":"NEB/ONÉ","Period":201708}},{"type":"Feature","id":39,"geometry":{"type":"Point","coordinates":[-71.736539999999934,45.011385000000075]},"properties":{"OBJECTID":39,"Country":"Canada","LineName":"Des Cantons IPL","Owner":"Quebec Hydro - Hydro-Quebec","Latitude":45.011384999999997,"Longitude":-71.736540000000005,"City":"Dixville","County":"","StateProv":"Quebec","ZipCode":"","Address":"","FrmState":"Quebec","FrmCountry":"Canada","ToState":"Vermont","ToCountry":"United States","NumLines":1,"Voltage_kV":"450","Source":"NEB/ONÉ","Period":201708}},{"type":"Feature","id":40,"geometry":{"type":"Point","coordinates":[-103.02440269999994,48.999340700000062]},"properties":{"OBJECTID":40,"Country":"Canada","LineName":"Boundary Dam-Tioga IPL","Owner":"Saskatchewan Power Corporation","Latitude":48.999340699999998,"Longitude":-103.0244027,"City":"Estevan","County":"","StateProv":"Saskatchewan","ZipCode":"","Address":"","FrmState":"Saskatchewan","FrmCountry":"Canada","ToState":"North Dakota","ToCountry":"United States","NumLines":1,"Voltage_kV":"230","Source":"NEB/ONÉ","Period":201708}},{"type":"Feature","id":41,"geometry":{"type":"Point","coordinates":[-79.067699999999945,43.090188000000069]},"properties":{"OBJECTID":41,"Country":"Canada","LineName":"Rainbow Bridge IPL","Owner":"Canadian Niagara Power Inc.","Latitude":43.090187999999998,"Longitude":-79.067700000000002,"City":"Niagara Falls","County":"","StateProv":"Ontario","ZipCode":"","Address":"","FrmState":"Ontario","FrmCountry":"Canada","ToState":"New York","ToCountry":"United States","NumLines":13,"Voltage_kV":"12","Source":"NEB/ONÉ","Period":201708}}]}