{"type":"FeatureCollection","features":[{"type":"Feature","id":1,"geometry":{"type":"Point","coordinates":[-135.05551247296759,60.688327508516615]},"properties":{"OBJECTID":1,"NAME":"S173 - Battery Substation ","COMMUNITY":"Whitehorse","INCOMING_CAPACITY_V":34500,"OUTGOING_CAPACITY_V":34500,"STEP_DOWN_IND":"No","STEP_UP_IND":"No","TRANSMISSION_IND":"Yes","SWITCHING_IND":"Yes","CONVERTER_IND":"No","LINES_IN_NUM":1,"LINES_OUT_NUM":1}},{"type":"Feature","id":2,"geometry":{"type":"Point","coordinates":[-137.23918724262106,62.620207731788931]},"properties":{"OBJECTID":2,"NAME":"S254 - Minto Mine","COMMUNITY":"Minto","INCOMING_CAPACITY_V":25000,"OUTGOING_CAPACITY_V":4160,"STEP_DOWN_IND":"Yes","STEP_UP_IND":"No","TRANSMISSION_IND":"No","SWITCHING_IND":"Yes","CONVERTER_IND":"No","LINES_IN_NUM":1,"LINES_OUT_NUM":1}},{"type":"Feature","id":3,"geometry":{"type":"Point","coordinates":[-136.71262600419237,63.387258165386548]},"properties":{"OBJECTID":3,"NAME":"S256 - Stewart Crossing North","COMMUNITY":"Stewart Crossing","INCOMING_CAPACITY_V":69000,"OUTGOING_CAPACITY_V":69000,"STEP_DOWN_IND":"No","STEP_UP_IND":"No","TRANSMISSION_IND":"No","SWITCHING_IND":"Yes","CONVERTER_IND":"No","LINES_IN_NUM":1,"LINES_OUT_NUM":1}},{"type":"Feature","id":4,"geometry":{"type":"Point","coordinates":[-135.30274289087862,63.91207610420205]},"properties":{"OBJECTID":4,"NAME":"S257 - Keno","COMMUNITY":"Keno","INCOMING_CAPACITY_V":69000,"OUTGOING_CAPACITY_V":14400,"STEP_DOWN_IND":"Yes","STEP_UP_IND":"No","TRANSMISSION_IND":"No","SWITCHING_IND":"Yes","CONVERTER_IND":"No","LINES_IN_NUM":1,"LINES_OUT_NUM":1}},{"type":"Feature","id":5,"geometry":{"type":"Point","coordinates":[-135.91607073119602,63.654984820339692]},"properties":{"OBJECTID":5,"NAME":"S249 - Mayo Hydro Sub","COMMUNITY":"Mayo","INCOMING_CAPACITY_V":6900,"OUTGOING_CAPACITY_V":69000,"STEP_DOWN_IND":"No","STEP_UP_IND":"Yes","TRANSMISSION_IND":"Yes","SWITCHING_IND":"Yes","CONVERTER_IND":"No","LINES_IN_NUM":2,"LINES_OUT_NUM":1}},{"type":"Feature","id":6,"geometry":{"type":"Point","coordinates":[-133.36068209426927,62.233299205715525]},"properties":{"OBJECTID":6,"NAME":"870S - Faro","COMMUNITY":"Faro","INCOMING_CAPACITY_V":138000,"OUTGOING_CAPACITY_V":138000,"STEP_DOWN_IND":"Yes","STEP_UP_IND":"No","TRANSMISSION_IND":"Yes","SWITCHING_IND":"Yes","CONVERTER_IND":"No","LINES_IN_NUM":1,"LINES_OUT_NUM":1}},{"type":"Feature","id":7,"geometry":{"type":"Point","coordinates":[-136.20083742720126,62.11665787846087]},"properties":{"OBJECTID":7,"NAME":"S255 - Carmacks","COMMUNITY":"Carmacks","INCOMING_CAPACITY_V":138000,"OUTGOING_CAPACITY_V":138000,"STEP_DOWN_IND":"No","STEP_UP_IND":"No","TRANSMISSION_IND":"No","SWITCHING_IND":"Yes","CONVERTER_IND":"No","LINES_IN_NUM":1,"LINES_OUT_NUM":2}},{"type":"Feature","id":8,"geometry":{"type":"Point","coordinates":[-136.83690251155747,62.600433017922434]},"properties":{"OBJECTID":8,"NAME":"S253 - Minto Landing","COMMUNITY":"Minto Landing","INCOMING_CAPACITY_V":138000,"OUTGOING_CAPACITY_V":25000,"STEP_DOWN_IND":"Yes","STEP_UP_IND":"No","TRANSMISSION_IND":"Yes","SWITCHING_IND":"Yes","CONVERTER_IND":"No","LINES_IN_NUM":1,"LINES_OUT_NUM":2}},{"type":"Feature","id":9,"geometry":{"type":"Point","coordinates":[-137.05397829298937,61.035915909021021]},"properties":{"OBJECTID":9,"NAME":"S167 - Aishihik","COMMUNITY":"Aishihik","INCOMING_CAPACITY_V":13800,"OUTGOING_CAPACITY_V":138000,"STEP_DOWN_IND":"No","STEP_UP_IND":"Yes","TRANSMISSION_IND":"Yes","SWITCHING_IND":"Yes","CONVERTER_IND":"No","LINES_IN_NUM":2,"LINES_OUT_NUM":1}},{"type":"Feature","id":10,"geometry":{"type":"Point","coordinates":[-135.19057075388258,60.879401974584063]},"properties":{"OBJECTID":10,"NAME":"S164 - Takhini","COMMUNITY":"Takhini","INCOMING_CAPACITY_V":138000,"OUTGOING_CAPACITY_V":138000,"STEP_DOWN_IND":"No","STEP_UP_IND":"No","TRANSMISSION_IND":"Yes","SWITCHING_IND":"Yes","CONVERTER_IND":"No","LINES_IN_NUM":1,"LINES_OUT_NUM":2}},{"type":"Feature","id":11,"geometry":{"type":"Point","coordinates":[-135.04150460890102,60.698610626773743]},"properties":{"OBJECTID":11,"NAME":"S171 - Riverside","COMMUNITY":"Whitehorse","INCOMING_CAPACITY_V":138000,"OUTGOING_CAPACITY_V":138000,"STEP_DOWN_IND":"No","STEP_UP_IND":"No","TRANSMISSION_IND":"No","SWITCHING_IND":"Yes","CONVERTER_IND":"No","LINES_IN_NUM":2,"LINES_OUT_NUM":1}},{"type":"Feature","id":12,"geometry":{"type":"Point","coordinates":[-135.04483796905072,60.699369113900254]},"properties":{"OBJECTID":12,"NAME":"S150 - Whitehorse","COMMUNITY":"Whitehorse","INCOMING_CAPACITY_V":6900,"OUTGOING_CAPACITY_V":138000,"STEP_DOWN_IND":"No","STEP_UP_IND":"Yes","TRANSMISSION_IND":"No","SWITCHING_IND":"Yes","CONVERTER_IND":"No","LINES_IN_NUM":5,"LINES_OUT_NUM":1}},{"type":"Feature","id":13,"geometry":{"type":"Point","coordinates":[-135.13840947447039,60.743132891664288]},"properties":{"OBJECTID":13,"NAME":"S170 - McIntyre","COMMUNITY":"Whitehorse","INCOMING_CAPACITY_V":138000,"OUTGOING_CAPACITY_V":34500,"STEP_DOWN_IND":"Yes","STEP_UP_IND":"No","TRANSMISSION_IND":"No","SWITCHING_IND":"Yes","CONVERTER_IND":"No","LINES_IN_NUM":1,"LINES_OUT_NUM":1}},{"type":"Feature","id":14,"geometry":{"type":"Point","coordinates":[-133.36259172004731,62.232877051466474]},"properties":{"OBJECTID":14,"NAME":"S146 - Faro","COMMUNITY":"Faro","INCOMING_CAPACITY_V":138000,"OUTGOING_CAPACITY_V":138000,"STEP_DOWN_IND":"No","STEP_UP_IND":"No","TRANSMISSION_IND":"Yes","SWITCHING_IND":"Yes","CONVERTER_IND":"No","LINES_IN_NUM":1,"LINES_OUT_NUM":1}},{"type":"Feature","id":15,"geometry":{"type":"Point","coordinates":[-139.36586388355639,64.038436443305343]},"properties":{"OBJECTID":15,"NAME":"S250 - Callison","COMMUNITY":"Callison","INCOMING_CAPACITY_V":66000,"OUTGOING_CAPACITY_V":12470,"STEP_DOWN_IND":"Yes","STEP_UP_IND":"No","TRANSMISSION_IND":"Yes","SWITCHING_IND":"Yes","CONVERTER_IND":"No","LINES_IN_NUM":1,"LINES_OUT_NUM":2}},{"type":"Feature","id":16,"geometry":{"type":"Point","coordinates":[-135.92802861656446,63.633487512192936]},"properties":{"OBJECTID":16,"NAME":"S248 - Mayo B Sub","COMMUNITY":"Mayo","INCOMING_CAPACITY_V":6900,"OUTGOING_CAPACITY_V":69000,"STEP_DOWN_IND":"No","STEP_UP_IND":"Yes","TRANSMISSION_IND":"Yes","SWITCHING_IND":"Yes","CONVERTER_IND":"No","LINES_IN_NUM":1,"LINES_OUT_NUM":1}},{"type":"Feature","id":17,"geometry":{"type":"Point","coordinates":[-136.58854202706024,62.823271330462688]},"properties":{"OBJECTID":17,"NAME":"S252 - Pelly Crossing","COMMUNITY":"Pelly Crossing","INCOMING_CAPACITY_V":138000,"OUTGOING_CAPACITY_V":138000,"STEP_DOWN_IND":"No","STEP_UP_IND":"No","TRANSMISSION_IND":"Yes","SWITCHING_IND":"Yes","CONVERTER_IND":"No","LINES_IN_NUM":1,"LINES_OUT_NUM":1}},{"type":"Feature","id":18,"geometry":{"type":"Point","coordinates":[-136.67976066664255,63.342643405075819]},"properties":{"OBJECTID":18,"NAME":"S251 - Stewart Crossing S","COMMUNITY":"Stewart Crossing","INCOMING_CAPACITY_V":138000,"OUTGOING_CAPACITY_V":69000,"STEP_DOWN_IND":"Yes","STEP_UP_IND":"No","TRANSMISSION_IND":"Yes","SWITCHING_IND":"Yes","CONVERTER_IND":"No","LINES_IN_NUM":1,"LINES_OUT_NUM":1}},{"type":"Feature","id":19,"geometry":{"type":"Point","coordinates":[-135.04719263272949,60.696508351043541]},"properties":{"OBJECTID":19,"NAME":"S151 - LNG","COMMUNITY":"Whitehorse","INCOMING_CAPACITY_V":4160,"OUTGOING_CAPACITY_V":34500,"STEP_DOWN_IND":"No","STEP_UP_IND":"Yes","TRANSMISSION_IND":"Yes","SWITCHING_IND":"Yes","CONVERTER_IND":"No","LINES_IN_NUM":1,"LINES_OUT_NUM":1}},{"type":"Feature","id":20,"geometry":{"type":"Point","coordinates":[-135.67267803405491,63.873894055257693]},"properties":{"OBJECTID":20,"NAME":"S258 - McQuesten","COMMUNITY":"McQuesten","INCOMING_CAPACITY_V":69000,"OUTGOING_CAPACITY_V":69000,"STEP_DOWN_IND":"No","STEP_UP_IND":"No","TRANSMISSION_IND":"Yes","SWITCHING_IND":"Yes","CONVERTER_IND":"No","LINES_IN_NUM":1,"LINES_OUT_NUM":2}},{"type":"Feature","id":21,"geometry":{"type":"Point","coordinates":[-136.71262600419237,63.387258165386548]},"properties":{"OBJECTID":21,"NAME":"S256 - Stewart Crossing N","COMMUNITY":"Stewart Crossing","INCOMING_CAPACITY_V":69000,"OUTGOING_CAPACITY_V":69000,"STEP_DOWN_IND":"No","STEP_UP_IND":"No","TRANSMISSION_IND":"Yes","SWITCHING_IND":"Yes","CONVERTER_IND":"No","LINES_IN_NUM":2,"LINES_OUT_NUM":1}}]}